NORAD_CAT_ID,OBJECT_NAME,OBJECT_TYPE,EPOCH,MEAN_MOTION,ECCENTRICITY,INCLINATION,RA_OF_ASC_NODE,ARG_OF_PERICENTER,MEAN_ANOMALY,BSTAR,MEAN_MOTION_DOT,MEAN_MOTION_DDOT,TLE_LINE0,TLE_LINE1,TLE_LINE2,SEMIMAJOR_AXIS,PERIOD,APOGEE,PERIGEE,DECAYED
52479.0,STARLINK-3878,PAYLOAD,2023-01-08 22:58:04,15.08834199,0.0002719,53.2169,197.4034,40.048,320.0712,-2.1267e-05,-6.27e-06,0.0,0 STARLINK-3878,1 52479U 22049AE  23008.95699556 -.00000627  00000-0 -21267-4 0  9990,2 52479  53.2169 197.4034 0002719  40.0480 320.0712 15.08834199 38079,6917.898,95.438,541.644,537.882,0.0
52479.0,STARLINK-3878,PAYLOAD,2023-01-09 11:41:09,15.08831396,0.0002718,53.217,195.0246,41.6718,318.4481,9.7474e-05,1.263e-05,0.0,0 STARLINK-3878,1 52479U 22049AE  23009.48691554  .00001263  00000-0  97474-4 0  9997,2 52479  53.2170 195.0246 0002718  41.6718 318.4481 15.08831396 39239,6917.906999999998,95.438,541.6519999999998,537.891,0.0
52479.0,STARLINK-3878,PAYLOAD,2023-01-09 14:51:55,15.08833552,0.0002716,53.2168,194.43,42.3482,317.772,9.6636e-05,1.25e-05,0.0,0 STARLINK-3878,1 52479U 22049AE  23009.61939479  .00001250  00000-0  96636-4 0  9998,2 52479  53.2168 194.4300 0002716  42.3482 317.7720 15.08833552 39250,6917.9,95.438,541.644,537.886,0.0
52479.0,STARLINK-3878,PAYLOAD,2023-01-10 05:10:23,15.08840632,0.0002751,53.2168,191.7537,43.3088,316.812,0.0001141,1.528e-05,0.0,0 STARLINK-3878,1 52479U 22049AE  23010.21555069  .00001528  00000-0  11410-3 0  9999,2 52479  53.2168 191.7537 0002751  43.3088 316.8120 15.08840632 38265,6917.8780000000015,95.438,541.6469999999998,537.84,0.0
52479.0,STARLINK-3878,PAYLOAD,2023-01-10 11:31:55,15.08844648,0.000275,53.2169,190.5641,43.646,316.475,0.00011627,1.563e-05,0.0,0 STARLINK-3878,1 52479U 22049AE  23010.48050759  .00001563  00000-0  11627-3 0  9993,2 52479  53.2169 190.5641 0002750  43.6460 316.4750 15.08844648 39385,6917.866,95.437,541.634,537.8290000000002,0.0
52479.0,STARLINK-3878,PAYLOAD,2023-01-10 17:53:28,15.08847731,0.0002762,53.2168,189.3747,44.2626,315.8586,0.00012989,1.7800000000000002e-05,0.0,0 STARLINK-3878,1 52479U 22049AE  23010.74546388  .00001780  00000-0  12989-3 0  9993,2 52479  53.2168 189.3747 0002762  44.2626 315.8586 15.08847731 39422,6917.857,95.437,541.632,537.811,0.0
52479.0,STARLINK-3878,PAYLOAD,2023-01-11 05:01:10,15.08845828,0.0002723,53.2168,187.2938,43.5207,316.5999,3.0425e-05,1.96e-06,0.0,0 STARLINK-3878,1 52479U 22049AE  23011.20914637  .00000196  00000-0  30425-4 0  9997,2 52479  53.2168 187.2938 0002723  43.5207 316.5999 15.08845828 39493,6917.863,95.437,541.611,537.844,0.0
52479.0,STARLINK-3878,PAYLOAD,2023-01-11 17:44:16,15.08832201,0.00028,53.2167,184.9146,46.5768,313.5456,-0.00010589,-1.973e-05,0.0,0 STARLINK-3878,1 52479U 22049AE  23011.73907989 -.00001973  00000-0 -10589-3 0  9991,2 52479  53.2167 184.9146 0002800  46.5768 313.5456 15.08832201 38493,6917.904,95.438,541.706,537.832,0.0
52479.0,STARLINK-3878,PAYLOAD,2023-01-11 20:55:02,15.08833178,0.0002827,53.2166,184.3199,47.1333,312.9896,-9.2937e-05,-1.767e-05,0.0,0 STARLINK-3878,1 52479U 22049AE  23011.87155930 -.00001767  00000-0 -92937-4 0  9996,2 52479  53.2166 184.3199 0002827  47.1333 312.9896 15.08833178 39595,6917.901,95.438,541.722,537.811,0.0
52479.0,STARLINK-3878,PAYLOAD,2023-01-12 17:35:03,15.08838007,0.0002758,53.2158,180.4531,52.6047,307.5196,-8.1418e-05,-1.584e-05,0.0,0 STARLINK-3878,1 52479U 22049AE  23012.73267650 -.00001584  00000-0 -81418-4 0  9994,2 52479  53.2158 180.4531 0002758  52.6047 307.5196 15.08838007 38643,6917.886,95.438,541.659,537.844,0.0
52479.0,STARLINK-3878,PAYLOAD,2023-01-12 20:45:49,15.08836418,0.000273,53.2158,179.8583,55.7301,304.395,-8.005600000000001e-05,-1.562e-05,0.0,0 STARLINK-3878,1 52479U 22049AE  23012.86515766 -.00001562  00000-0 -80056-4 0  9995,2 52479  53.2158 179.8583 0002730  55.7301 304.3950 15.08836418 39748,6917.891,95.438,541.645,537.868,0.0
52479.0,STARLINK-3878,PAYLOAD,2023-01-13 17:25:50,15.08836741,0.0002703,53.2165,175.9931,53.9464,306.1778,9.0618e-05,1.154e-05,0.0,0 STARLINK-3878,1 52479U 22049AE  23013.72627324  .00001154  00000-0  90618-4 0  9995,2 52479  53.2165 175.9931 0002703  53.9464 306.1778 15.08836741 39871,6917.89,95.438,541.625,537.885,0.0
52479.0,STARLINK-3878,PAYLOAD,2023-01-14 10:55:05,15.08829779,0.0002569999999999,53.2177,172.7242,48.0071,312.1139,1.3525e-05,-7.3e-07,0.0,0 STARLINK-3878,1 52479U 22049AE  23014.45492398 -.00000073  00000-0  13525-4 0  9999,2 52479  53.2177 172.7242 0002570  48.0071 312.1139 15.08829779 38909,6917.911999999999,95.438,541.555,537.999,0.0
52479.0,STARLINK-3878,PAYLOAD,2023-01-15 13:56:38,15.08833994,0.0002408,53.2186,167.6691,56.5737,303.5485,3.1964e-05,2.2e-06,0.0,0 STARLINK-3878,1 52479U 22049AE  23015.58100431  .00000220  00000-0  31964-4 0  9998,2 52479  53.2186 167.6691 0002408  56.5737 303.5485 15.08833994 39074,6917.899,95.438,541.43,538.0980000000001,0.0
52479.0,STARLINK-3878,PAYLOAD,2023-01-15 17:07:24,15.08840214,0.0002403,53.2186,167.0739,52.9167,307.2045,8.792e-05,1.111e-05,0.0,0 STARLINK-3878,1 52479U 22049AE  23015.71347871  .00001111  00000-0  87920-4 0  9997,2 52479  53.2186 167.0739 0002403  52.9167 307.2045 15.08840214 39091,6917.88,95.438,541.4069999999999,538.082,0.0
52479.0,STARLINK-3878,PAYLOAD,2023-01-16 02:39:43,15.0883561,0.000241,53.2178,165.2902,54.0211,306.1004,3.5291e-05,2.73e-06,0.0,0 STARLINK-3878,1 52479U 22049AE  23016.11092396  .00000273  00000-0  35291-4 0  9993,2 52479  53.2178 165.2902 0002410  54.0211 306.1004 15.08835610 39159,6917.894,95.438,541.4259999999999,538.092,0.0
52479.0,STARLINK-3878,PAYLOAD,2023-01-16 10:36:39,15.08834504,0.0002546999999999,53.2182,163.8039,63.9483,296.1771,-1.024e-05,-4.51e-06,0.0,0 STARLINK-3878,1 52479U 22049AE  23016.44212794 -.00000451  00000-0 -10240-4 0  9992,2 52479  53.2182 163.8039 0002547  63.9483 296.1771 15.08834504 40286,6917.897,95.438,541.524,538.0,0.0
52479.0,STARLINK-3878,PAYLOAD,2023-01-16 18:33:35,15.08841144,0.0002822,53.2178,162.3157,62.0515,298.0763,3.6407e-05,2.91e-06,0.0,0 STARLINK-3878,1 52479U 22049AE  23016.77332252  .00000291  00000-0  36407-4 0  9993,2 52479  53.2178 162.3157 0002822  62.0515 298.0763 15.08841144 40334,6917.877,95.437,541.694,537.79,0.0
52479.0,STARLINK-3878,PAYLOAD,2023-01-17 08:52:04,15.08825599,0.0002638,53.2183,159.6401,66.6381,293.4889,-3.1828e-06,-3.39e-06,0.0,0 STARLINK-3878,1 52479U 22049AE  23017.36949576 -.00000339  00000-0 -31828-5 0  9990,2 52479  53.2183 159.6401 0002638  66.6381 293.4889 15.08825599 39340,6917.924,95.438,541.614,537.964,0.0
52479.0,STARLINK-3878,PAYLOAD,2023-01-18 15:04:23,15.08837995,0.0002165,53.2191,153.9897,67.5567,292.5655,1.5753e-05,-3.8e-07,0.0,0 STARLINK-3878,1 52479U 22049AE  23018.62804961 -.00000038  00000-0  15753-4 0  9991,2 52479  53.2191 153.9897 0002165  67.5567 292.5655 15.08837995 40612,6917.887,95.438,541.249,538.254,0.0
52479.0,STARLINK-3878,PAYLOAD,2023-01-19 02:12:04,15.08849242,0.0002234,53.2172,151.9097,69.5452,290.578,2.6391e-05,1.32e-06,0.0,0 STARLINK-3878,1 52479U 22049AE  23019.09172133  .00000132  00000-0  26391-4 0  9996,2 52479  53.2172 151.9097 0002234  69.5452 290.5780 15.08849242 39605,6917.852,95.437,541.263,538.172,0.0
52479.0,STARLINK-3878,PAYLOAD,2023-01-19 08:33:37,15.08838445,0.0002973,53.2156,150.7204,76.9763,283.1561,6.3503e-05,7.22e-06,0.0,0 STARLINK-3878,1 52479U 22049AE  23019.35668882  .00000722  00000-0  63503-4 0  9997,2 52479  53.2156 150.7204 0002973  76.9763 283.1561 15.08838445 39643,6917.885,95.438,541.807,537.693,0.0
52479.0,STARLINK-3878,PAYLOAD,2023-01-19 11:44:24,15.08831024,0.0002602,53.2161,150.1251,77.3139,282.8144,9.6828e-06,-1.34e-06,0.0,0 STARLINK-3878,1 52479U 22049AE  23019.48917469 -.00000134  00000-0  96828-5 0  9994,2 52479  53.2161 150.1251 0002602  77.3139 282.8144 15.08831024 40748,6917.908,95.438,541.573,537.9730000000001,0.0
52479.0,STARLINK-3878,PAYLOAD,2023-01-20 11:35:11,15.08840382,0.0002055,53.217,145.6639,87.2079,272.9149,-0.00010651,-1.983e-05,0.0,0 STARLINK-3878,1 52479U 22049AE  23020.48277358 -.00001983  00000-0 -10651-3 0  9994,2 52479  53.2170 145.6639 0002055  87.2079 272.9149 15.08840382 39810,6917.879,95.438,541.1659999999999,538.323,0.0
52479.0,STARLINK-3878,PAYLOAD,2023-01-20 14:45:57,15.08846399,0.0002121,53.2174,145.0688,85.59299999999999,274.5305,-7.026399999999999e-05,-1.407e-05,0.0,0 STARLINK-3878,1 52479U 22049AE  23020.61524841 -.00001407  00000-0 -70264-4 0  9999,2 52479  53.2174 145.0688 0002121  85.5930 274.5305 15.08846399 39831,6917.861,95.437,541.193,538.259,0.0
52479.0,STARLINK-3878,PAYLOAD,2023-01-21 03:29:02,15.08832912,0.0002070999999999,53.2168,142.6917,85.7827,274.3402,3.1696e-05,2.16e-06,0.0,0 STARLINK-3878,1 52479U 22049AE  23021.14517182  .00000216  00000-0  31696-4 0  9999,2 52479  53.2168 142.6917 0002071  85.7827 274.3402 15.08832912 39914,6917.901999999999,95.438,541.2,538.3340000000001,0.0
52479.0,STARLINK-3878,PAYLOAD,2023-01-21 14:36:43,15.08844263,0.0001943,53.2173,140.6099,84.6814,275.44,0.00011879,1.603e-05,0.0,0 STARLINK-3878,1 52479U 22049AE  23021.60884244  .00001603  00000-0  11879-3 0  9997,2 52479  53.2173 140.6099 0001943  84.6814 275.4400 15.08844263 39989,6917.866999999999,95.437,541.077,538.388,0.0
52479.0,STARLINK-3878,PAYLOAD,2023-01-22 03:19:49,15.08832181,0.0001728,53.2173,138.2295,91.061,269.058,1.8239e-05,2e-08,0.0,0 STARLINK-3878,1 52479U 22049AE  23022.13877209  .00000002  00000-0  18239-4 0  9999,2 52479  53.2173 138.2295 0001728  91.0610 269.0580 15.08832181 40062,6917.904,95.438,540.965,538.5740000000001,0.0
52479.0,STARLINK-3878,PAYLOAD,2023-01-22 14:27:31,15.08840722,0.0001804,53.2178,136.1501,88.5757,271.5441,9.7819e-05,1.269e-05,0.0,0 STARLINK-3878,1 52479U 22049AE  23022.60244538  .00001269  00000-0  97819-4 0  9991,2 52479  53.2178 136.1501 0001804  88.5757 271.5441 15.08840722 40134,6917.878000000001,95.438,540.991,538.495,0.0
